IRIDIUM 36              
1 24967U 97056C   24233.60863962  .00001221  00000+0  40570-3 0  9993
2 24967  86.3962 299.2502 0002036  93.4973 266.6457 14.36971321409049
IRIDIUM 39              
1 25042U 97069D   24233.34186657  .00002524  00000+0  67066-3 0  9998
2 25042  86.3970 340.0963 0016719 225.8611 134.1219 14.48209238405407
IRIDIUM 38              
1 25043U 97069E   24233.87444833  .00001661  00000+0  54932-3 0  9999
2 25043  86.4005 359.4810 0002851  52.2744 307.8711 14.37436035403065
IRIDIUM 42              
1 25077U 97077A   24233.44662962  .00001583  00000+0  54154-3 0  9992
2 25077  86.4003   5.4550 0002430  77.3876 282.7592 14.35718029398038
IRIDIUM 44              
1 25078U 97077B   24233.37458708  .00001448  00000+0  45781-3 0  9992
2 25078  86.4006 348.2282 0000855  33.4590 326.6663 14.39566257400418
IRIDIUM 45              
1 25104U 97082A   24233.33867675  .00037941  00000+0  19856-2 0  9991
2 25104  86.3747 192.0926 0151844   7.1871 353.1489 15.06152206406758
IRIDIUM 24              
1 25105U 97082B   24233.45272665  .00001745  00000+0  53296-3 0  9994
2 25105  86.3933 207.6694 0011446   3.5695 356.5584 14.41361671399882
